$$SOE
2459580.500000000, A.D. 2022-Jan-01 00:00:00.0000, 2.652023180918985E+08, -1.896361516282986E+08, -7.581760807438031E+06,
2459587.500000000, A.D. 2022-Jan-08 00:00:00.0000, 2.733192134363501E+08, -1.799232138433593E+08, -6.361201590365440E+06,
2459594.500000000, A.D. 2022-Jan-15 00:00:00.0000, 2.810578828008612E+08, -1.699611823758324E+08, -5.131835386542961E+06,
2459601.500000000, A.D. 2022-Jan-22 00:00:00.0000, 2.884118863980237E+08, -1.597664332385301E+08, -3.895443422080986E+06,
2459608.500000000, A.D. 2022-Jan-29 00:00:00.0000, 2.953755945461192E+08, -1.493553828345377E+08, -2.653779791877776E+06,
2459615.500000000, A.D. 2022-Feb-05 00:00:00.0000, 3.019441678900507E+08, -1.387444443694719E+08, -1.408567835358918E+06,
2459622.500000000, A.D. 2022-Feb-12 00:00:00.0000, 3.081135374068688E+08, -1.279499879675732E+08, -1.614971351343468E+05,
2459629.500000000, A.D. 2022-Feb-19 00:00:00.0000, 3.138803831868913E+08, -1.169883022072786E+08, 1.085779180274323E+06,
2459636.500000000, A.D. 2022-Feb-26 00:00:00.0000, 3.192421109880443E+08, -1.058755578527936E+08, 2.331646897441655E+06,
2459643.500000000, A.D. 2022-Mar-05 00:00:00.0000, 3.241968270197732E+08, -9.462777442117624E+07, 3.574532886699278E+06,
2459650.500000000, A.D. 2022-Mar-12 00:00:00.0000, 3.287433114616240E+08, -8.326078964480413E+07, 4.812906963702861E+06,
2459657.500000000, A.D. 2022-Mar-19 00:00:00.0000, 3.328809910555231E+08, -7.179023177015957E+07, 6.045283452397875E+06,
2459664.500000000, A.D. 2022-Mar-26 00:00:00.0000, 3.366099110454559E+08, -6.023149464613363E+07, 7.270222461033167E+06,
2459671.500000000, A.D. 2022-Apr-02 00:00:00.0000, 3.399307067651995E+08, -4.859971558693494E+07, 8.486330875675697E+06,
2459678.500000000, A.D. 2022-Apr-09 00:00:00.0000, 3.428445753572682E+08, -3.690975591849910E+07, 9.692263062293388E+06,
2459685.500000000, A.D. 2022-Apr-16 00:00:00.0000, 3.453532481692307E+08, -2.517618345140181E+07, 1.088672131402715E+07,
2459692.500000000, A.D. 2022-Apr-23 00:00:00.0000, 3.474589627348800E+08, -1.341325567966316E+07, 1.206845626607360E+07,
2459699.500000000, A.D. 2022-Apr-30 00:00:00.0000, 3.491644326334656E+08, -1.634905832661265E+06, 1.323626728430380E+07,
2459706.500000000, A.D. 2022-May-07 00:00:00.0000, 3.504728184257081E+08, 1.014526636764869E+07, 1.438900240192294E+07,
2459713.500000000, A.D. 2022-May-14 00:00:00.0000, 3.513877011700679E+08, 2.191400241310550E+07, 1.552555794105565E+07,
2459720.500000000, A.D. 2022-May-21 00:00:00.0000, 3.519130565902782E+08, 3.365839207195887E+07, 1.664487808401790E+07,
2459727.500000000, A.D. 2022-May-28 00:00:00.0000, 3.520532295036799E+08, 4.536587898180797E+07, 1.774595437602460E+07,
2459734.500000000, A.D. 2022-Jun-04 00:00:00.0000, 3.518129088608016E+08, 5.702426459106162E+07, 1.882782512390308E+07,
2459741.500000000, A.D. 2022-Jun-11 00:00:00.0000, 3.511971036000262E+08, 6.862171057903588E+07, 1.988957469251104E+07,
2459748.500000000, A.D. 2022-Jun-18 00:00:00.0000, 3.502111194013348E+08, 8.014673989136565E+07, 2.093033271012709E+07,
2459755.500000000, A.D. 2022-Jun-25 00:00:00.0000, 3.488605363998293E+08, 9.158823647608362E+07, 2.194927318971602E+07,
2459762.500000000, A.D. 2022-Jul-02 00:00:00.0000, 3.471511880113440E+08, 1.029354437693977E+08, 2.294561355922963E+07,
2459769.500000000, A.D. 2022-Jul-09 00:00:00.0000, 3.450891412681032E+08, 1.141779622198466E+08, 2.391861358924703E+07,
2459776.500000000, A.D. 2022-Jul-16 00:00:00.0000, 3.426806786079089E+08, 1.253057470431632E+08, 2.486757432066732E+07,
2459783.500000000, A.D. 2022-Jul-23 00:00:00.0000, 3.399322789165878E+08, 1.363091063953155E+08, 2.579183721122495E+07,
2459790.500000000, A.D. 2022-Jul-30 00:00:00.0000, 3.368505979130077E+08, 1.471786967099670E+08, 2.669078323082342E+07,
2459797.500000000, A.D. 2022-Aug-06 00:00:00.0000, 3.334424514701639E+08, 1.579055159319393E+08, 2.756383163739289E+07,
2459804.500000000, A.D. 2022-Aug-13 00:00:00.0000, 3.297148010292611E+08, 1.684808974788662E+08, 2.841043874065347E+07,
2459811.500000000, A.D. 2022-Aug-20 00:00:00.0000, 3.256747395136066E+08, 1.788965045026049E+08, 2.923009676292004E+07,
2459818.500000000, A.D. 2022-Aug-27 00:00:00.0000, 3.213294777842867E+08, 1.891443237937037E+08, 3.002233273697808E+07,
2459825.500000000, A.D. 2022-Sep-03 00:00:00.0000, 3.166863318567616E+08, 1.992166592829386E+08, 3.078670741420768E+07,
2459832.500000000, A.D. 2022-Sep-10 00:00:00.0000, 3.117527109377784E+08, 2.091061252232828E+08, 3.152281418102433E+07,
2459839.500000000, A.D. 2022-Sep-17 00:00:00.0000, 3.065361062800798E+08, 2.188056391050802E+08, 3.223027798465349E+07,
2459846.500000000, A.D. 2022-Sep-24 00:00:00.0000, 3.010440808827327E+08, 2.283084143034610E+08, 3.290875426195307E+07,
2459853.500000000, A.D. 2022-Oct-01 00:00:00.0000, 2.952842602447265E+08, 2.376079524813215E+08, 3.355792785048631E+07,
2459860.500000000, A.D. 2022-Oct-08 00:00:00.0000, 2.892643245475947E+08, 2.466980363099494E+08, 3.417751188953243E+07,
2459867.500000000, A.D. 2022-Oct-15 00:00:00.0000, 2.829920013005031E+08, 2.555727237390059E+08, 3.476724689558193E+07,
2459874.500000000, A.D. 2022-Oct-22 00:00:00.0000, 2.764750562281646E+08, 2.642263421642405E+08, 3.532690007615997E+07,
2459881.500000000, A.D. 2022-Oct-29 00:00:00.0000, 2.697212848698902E+08, 2.726534799327682E+08, 3.585626444335292E+07,
2459888.500000000, A.D. 2022-Nov-05 00:00:00.0000, 2.627385069605274E+08, 2.808489779498448E+08, 3.635515775897092E+07,
2459895.500000000, A.D. 2022-Nov-12 00:00:00.0000, 2.555345615936418E+08, 2.888079226724171E+08, 3.682342159458591E+07,
2459902.500000000, A.D. 2022-Nov-19 00:00:00.0000, 2.481173024132645E+08, 2.965256395538586E+08, 3.726092049430193E+07,
2459909.500000000, A.D. 2022-Nov-26 00:00:00.0000, 2.404945930641976E+08, 3.039976865602007E+08, 3.766754118374066E+07,
2459916.500000000, A.D. 2022-Dec-03 00:00:00.0000, 2.326743030364259E+08, 3.112198477627060E+08, 3.804319180924545E+07,
2459923.500000000, A.D. 2022-Dec-10 00:00:00.0000, 2.246643039207939E+08, 3.181881270404288E+08, 3.838780120507355E+07,
2459930.500000000, A.D. 2022-Dec-17 00:00:00.0000, 2.164724660744327E+08, 3.248987418807740E+08, 3.870131818480940E+07,
2459937.500000000, A.D. 2022-Dec-24 00:00:00.0000, 2.081066557807500E+08, 3.313481172230421E+08, 3.898371084208494E+07,
2459944.500000000, A.D. 2022-Dec-31 00:00:00.0000, 1.995747332384871E+08, 3.375328794615940E+08, 3.923496583695827E+07,
2459951.500000000, A.D. 2023-Jan-07 00:00:00.0000, 1.908845514814917E+08, 3.434498515779186E+08, 3.945508773532307E+07,
2459958.500000000, A.D. 2023-Jan-14 00:00:00.0000, 1.820439542403187E+08, 3.490960498995525E+08, 3.964409862127289E+07,
2459965.500000000, A.D. 2023-Jan-21 00:00:00.0000, 1.730607720744830E+08, 3.544686793145905E+08, 3.980203778151804E+07,
2459972.500000000, A.D. 2023-Jan-28 00:00:00.0000, 1.639428204225813E+08, 3.595651267547489E+08, 3.992896111006361E+07,
2459979.500000000, A.D. 2023-Feb-04 00:00:00.0000, 1.546978993453834E+08, 3.643829559780457E+08, 4.002494049922118E+07,
2459986.500000000, A.D. 2023-Feb-11 00:00:00.0000, 1.453337931472067E+08, 3.689199034571466E+08, 4.009006336487283E+07,
2459993.500000000, A.D. 2023-Feb-18 00:00:00.0000, 1.358582697934738E+08, 3.731738745516139E+08, 4.012443224411637E+07,
2460000.500000000, A.D. 2023-Feb-25 00:00:00.0000, 1.262790803707310E+08, 3.771429398040682E+08, 4.012816442772016E+07,
2460007.500000000, A.D. 2023-Mar-04 00:00:00.0000, 1.166039586766149E+08, 3.808253313797858E+08, 4.010139161913089E+07,
2460014.500000000, A.D. 2023-Mar-11 00:00:00.0000, 1.068406209547544E+08, 3.842194396489651E+08, 4.004425961665513E+07,
2460021.500000000, A.D. 2023-Mar-18 00:00:00.0000, 9.699676580784819E+07, 3.873238098586732E+08, 3.995692800923288E+07,
2460028.500000000, A.D. 2023-Mar-25 00:00:00.0000, 8.708007447683680E+07, 3.901371388428999E+08, 3.983956986200938E+07,
2460035.500000000, A.D. 2023-Apr-01 00:00:00.0000, 7.709821189398040E+07, 3.926582721622298E+08, 3.969237138428497E+07,
2460042.500000000, A.D. 2023-Apr-08 00:00:00.0000, 6.705882787986331E+07, 3.948862029003028E+08, 3.951553173661596E+07,
2460049.500000000, A.D. 2023-Apr-15 00:00:00.0000, 5.696955613607388E+07, 3.968200710110489E+08, 3.930926310106927E+07,
2460056.500000000, A.D. 2023-Apr-22 00:00:00.0000, 4.683801282929447E+07, 3.984591601636731E+08, 3.907379059948716E+07,
2460063.500000000, A.D. 2023-Apr-29 00:00:00.0000, 3.667179749143180E+07, 3.998028943437263E+08, 3.880935199372643E+07,
2460070.500000000, A.D. 2023-May-06 00:00:00.0000, 2.647849446958048E+07, 4.008508359924070E+08, 3.851619747424084E+07,
2460077.500000000, A.D. 2023-May-13 00:00:00.0000, 1.626567394021112E+07, 4.016026847864928E+08, 3.819458955229130E+07,
2460084.500000000, A.D. 2023-May-20 00:00:00.0000, 6.040892711212371E+06, 4.020582765647545E+08, 3.784480299314004E+07,
2460091.500000000, A.D. 2023-May-27 00:00:00.0000, -4.188305005043714E+06, 4.022175823695560E+08, 3.746712476919633E+07,
2460098.500000000, A.D. 2023-Jun-03 00:00:00.0000, -1.441438679996354E+07, 4.020807076282312E+08, 3.706185402913705E+07,
2460105.500000000, A.D. 2023-Jun-10 00:00:00.0000, -2.462983124418352E+07, 4.016478914592993E+08, 3.662930207892042E+07,
2460112.500000000, A.D. 2023-Jun-17 00:00:00.0000, -3.482712695064704E+07, 4.009195060423389E+08, 3.616979236088693E+07,
2460119.500000000, A.D. 2023-Jun-24 00:00:00.0000, -4.499877121489415E+07, 3.998960561062610E+08, 3.568366040549868E+07,
2460126.500000000, A.D. 2023-Jul-01 00:00:00.0000, -5.513726798931467E+07, 3.985781793643656E+08, 3.517125379970086E+07,
2460133.500000000, A.D. 2023-Jul-08 00:00:00.0000, -6.523512687392307E+07, 3.969666487201797E+08, 3.463293239217794E+07,
2460140.500000000, A.D. 2023-Jul-15 00:00:00.0000, -7.528486440664433E+07, 3.950623734119741E+08, 3.406906862039092E+07,
2460147.500000000, A.D. 2023-Jul-22 00:00:00.0000, -8.527900414261045E+07, 3.928663980563844E+08, 3.348004755123851E+07,
$$EOE